{
    "links": {
        "self": "http://www.neowsapp.com/rest/v1/neo/3454895?api_key=iIulBulltgU6a56xZRHN4H3l9WmuAYTsLGpBGhQ2"
    },
    "id": "3454895",
    "neo_reference_id": "3454895",
    "name": "(2009 FZ10)",
    "designation": "2009 FZ10",
    "nasa_jpl_url": "http://ssd.jpl.nasa.gov/sbdb.cgi?sstr=3454895",
    "absolute_magnitude_h": 25.5,
    "estimated_diameter": {
        "kilometers": {
            "estimated_diameter_min": 0.0211132445,
            "estimated_diameter_max": 0.0472106499
        },
        "meters": {
            "estimated_diameter_min": 21.113244479,
            "estimated_diameter_max": 47.2106498806
        },
        "miles": {
            "estimated_diameter_min": 0.0131191578,
            "estimated_diameter_max": 0.0293353287
        },
        "feet": {
            "estimated_diameter_min": 69.2691770164,
            "estimated_diameter_max": 154.8905885541
        }
    },
    "is_potentially_hazardous_asteroid": false,
    "close_approach_data": [
        {
            "close_approach_date": "2009-03-15",
            "close_approach_date_full": "2009-Mar-15 10:33",
            "epoch_date_close_approach": 1237113180000,
            "relative_velocity": {
                "kilometers_per_second": "13.321232476",
                "kilometers_per_hour": "47956.4369134805",
                "miles_per_hour": "29798.2649254901"
            },
            "miss_distance": {
                "astronomical": "0.0162415751",
                "lunar": "6.3179727139",
                "kilometers": "2429705.040405037",
                "miles": "1509748.7041300306"
            },
            "orbiting_body": "Earth"
        }
    ],
    "orbital_data": {
        "orbit_id": "10",
        "orbit_determination_date": "2017-04-06 09:00:55",
        "first_observation_date": "2009-03-21",
        "last_observation_date": "2009-03-29",
        "data_arc_in_days": 8,
        "observations_used": 39,
        "orbit_uncertainty": "8",
        "minimum_orbit_intersection": ".00928086",
        "jupiter_tisserand_invariant": "3.461",
        "epoch_osculation": "2454915.5",
        "eccentricity": ".5972295100072534",
        "semi_major_axis": "2.131561078855702",
        "inclination": "6.455762355145728",
        "ascending_node_longitude": "177.8267364588254",
        "orbital_period": "1136.698009157808",
        "perihelion_distance": ".8585299001801785",
        "perihelion_argument": "304.4172633133913",
        "aphelion_distance": "3.404592257531224",
        "perihelion_time": "2454869.085485335455",
        "mean_anomaly": "14.69979286021294",
        "mean_motion": ".3167068096360335",
        "equinox": "J2000",
        "orbit_class": {
            "orbit_class_type": "APO",
            "orbit_class_description": "Near-Earth asteroid orbits which cross the Earth’s orbit similar to that of 1862 Apollo",
            "orbit_class_range": "a (semi-major axis) > 1.0 AU; q (perihelion) < 1.017 AU"
        }
    },
    "is_sentry_object": false
}